{
    "links": {
        "self": "http://www.neowsapp.com/rest/v1/neo/3787631?api_key=iIulBulltgU6a56xZRHN4H3l9WmuAYTsLGpBGhQ2"
    },
    "id": "3787631",
    "neo_reference_id": "3787631",
    "name": "(2017 UJ3)",
    "designation": "2017 UJ3",
    "nasa_jpl_url": "http://ssd.jpl.nasa.gov/sbdb.cgi?sstr=3787631",
    "absolute_magnitude_h": 23.8,
    "estimated_diameter": {
        "kilometers": {
            "estimated_diameter_min": 0.046190746,
            "estimated_diameter_max": 0.1032856481
        },
        "meters": {
            "estimated_diameter_min": 46.1907460282,
            "estimated_diameter_max": 103.2856480504
        },
        "miles": {
            "estimated_diameter_min": 0.0287015901,
            "estimated_diameter_max": 0.0641787064
        },
        "feet": {
            "estimated_diameter_min": 151.544447199,
            "estimated_diameter_max": 338.8636855496
        }
    },
    "is_potentially_hazardous_asteroid": false,
    "close_approach_data": [
        {
            "close_approach_date": "2017-10-18",
            "close_approach_date_full": "2017-Oct-18 06:12",
            "epoch_date_close_approach": 1508307120000,
            "relative_velocity": {
                "kilometers_per_second": "17.8283138266",
                "kilometers_per_hour": "64181.9297757532",
                "miles_per_hour": "39880.1551987173"
            },
            "miss_distance": {
                "astronomical": "0.0292538352",
                "lunar": "11.3797418928",
                "kilometers": "4376311.435251024",
                "miles": "2719313.8296071712"
            },
            "orbiting_body": "Earth"
        },
        {
            "close_approach_date": "2045-06-10",
            "close_approach_date_full": "2045-Jun-10 12:46",
            "epoch_date_close_approach": 2380711560000,
            "relative_velocity": {
                "kilometers_per_second": "12.937248547",
                "kilometers_per_hour": "46574.0947690679",
                "miles_per_hour": "28939.3312747022"
            },
            "miss_distance": {
                "astronomical": "0.2289335726",
                "lunar": "89.0551597414",
                "kilometers": "34247974.832450362",
                "miles": "21280704.7614925156"
            },
            "orbiting_body": "Earth"
        }
    ],
    "orbital_data": {
        "orbit_id": "3",
        "orbit_determination_date": "2017-10-27 06:42:12",
        "first_observation_date": "2017-10-21",
        "last_observation_date": "2017-10-26",
        "data_arc_in_days": 5,
        "observations_used": 35,
        "orbit_uncertainty": "8",
        "minimum_orbit_intersection": ".0264775",
        "jupiter_tisserand_invariant": "3.733",
        "epoch_osculation": "2458050.5",
        "eccentricity": ".6238745703531694",
        "semi_major_axis": "1.858770567488396",
        "inclination": "1.62263535804311",
        "ascending_node_longitude": "116.5358678643342",
        "orbital_period": "925.6293300410474",
        "perihelion_distance": ".6991308783114559",
        "perihelion_argument": "190.7067559396642",
        "aphelion_distance": "3.018410256665335",
        "perihelion_time": "2457998.293599612942",
        "mean_anomaly": "20.30435243285499",
        "mean_motion": ".3889245817048987",
        "equinox": "J2000",
        "orbit_class": {
            "orbit_class_type": "APO",
            "orbit_class_description": "Near-Earth asteroid orbits which cross the Earth’s orbit similar to that of 1862 Apollo",
            "orbit_class_range": "a (semi-major axis) > 1.0 AU; q (perihelion) < 1.017 AU"
        }
    },
    "is_sentry_object": false
}